[{"OBJECT_NAME":"SUPERVIEW NEO-2 01","OBJECT_ID":"2022-082A","EPOCH":"2026-03-09T23:46:34.771008","MEAN_MOTION":15.24506379,"ECCENTRICITY":0.00017316,"INCLINATION":97.394,"RA_OF_ASC_NODE":80.2484,"ARG_OF_PERICENTER":88.8448,"MEAN_ANOMALY":271.2988,"EPHEMERIS_TYPE":0,"CLASSIFICATION_TYPE":"U","NORAD_CAT_ID":53128,"ELEMENT_SET_NO":999,"REV_AT_EPOCH":20309,"BSTAR":0.00036489892,"MEAN_MOTION_DOT":8.905e-5,"MEAN_MOTION_DDOT":0},{"OBJECT_NAME":"STARLINK-36487","OBJECT_ID":"2026-005N","EPOCH":"2026-03-09T21:20:04.180128","MEAN_MOTION":15.27776317,"ECCENTRICITY":0.00037754,"INCLINATION":42.998,"RA_OF_ASC_NODE":237.1463,"ARG_OF_PERICENTER":297.1589,"MEAN_ANOMALY":62.8878,"EPHEMERIS_TYPE":0,"CLASSIFICATION_TYPE":"U","NORAD_CAT_ID":67416,"ELEMENT_SET_NO":999,"REV_AT_EPOCH":872,"BSTAR":-0.0089087085,"MEAN_MOTION_DOT":-0.0023917,"MEAN_MOTION_DDOT":0}]
